{
  "links" : {
    "next" : "https://api.nasa.gov/neo/rest/v1/feed?start_date=1996-07-16&end_date=1996-07-16&detailed=true&api_key=t0TVs3DtDT2H8Oy2Zy8m2eVrNsAVKAexjcZXUckd",
    "prev" : "https://api.nasa.gov/neo/rest/v1/feed?start_date=1996-07-14&end_date=1996-07-14&detailed=true&api_key=t0TVs3DtDT2H8Oy2Zy8m2eVrNsAVKAexjcZXUckd",
    "self" : "https://api.nasa.gov/neo/rest/v1/feed?start_date=1996-07-15&end_date=1996-07-15&detailed=true&api_key=t0TVs3DtDT2H8Oy2Zy8m2eVrNsAVKAexjcZXUckd"
  },
  "element_count" : 6,
  "near_earth_objects" : {
    "1996-07-15" : [ {
      "links" : {
        "self" : "https://api.nasa.gov/neo/rest/v1/neo/2053409?api_key=t0TVs3DtDT2H8Oy2Zy8m2eVrNsAVKAexjcZXUckd"
      },
      "neo_reference_id" : "2053409",
      "name" : "53409 (1999 LU7)",
      "nasa_jpl_url" : "http://ssd.jpl.nasa.gov/sbdb.cgi?sstr=2053409",
      "absolute_magnitude_h" : 18.7,
      "estimated_diameter" : {
        "kilometers" : {
          "estimated_diameter_min" : 0.4836764882,
          "estimated_diameter_max" : 1.0815335068
        },
        "meters" : {
          "estimated_diameter_min" : 483.6764882185,
          "estimated_diameter_max" : 1081.533506775
        },
        "miles" : {
          "estimated_diameter_min" : 0.3005425432,
          "estimated_diameter_max" : 0.6720335566
        },
        "feet" : {
          "estimated_diameter_min" : 1586.8651696069,
          "estimated_diameter_max" : 3548.3383903678
        }
      },
      "is_potentially_hazardous_asteroid" : false,
      "close_approach_data" : [ {
        "close_approach_date" : "1996-07-15",
        "epoch_date_close_approach" : 837414000000,
        "relative_velocity" : {
          "kilometers_per_second" : "14.2836825359",
          "kilometers_per_hour" : "51421.2571290938",
          "miles_per_hour" : "31951.1694644639"
        },
        "miss_distance" : {
          "astronomical" : "0.1925656623",
          "lunar" : "74.9080429077",
          "kilometers" : "28807414",
          "miles" : "17900096"
        },
        "orbiting_body" : "Earth"
      } ],
      "orbital_data" : {
        "orbit_id" : "32",
        "orbit_determination_date" : "2017-04-06 09:29:04",
        "orbit_uncertainty" : "0",
        "minimum_orbit_intersection" : ".086402",
        "jupiter_tisserand_invariant" : "3.448",
        "epoch_osculation" : "2458000.5",
        "eccentricity" : ".6279743953246445",
        "semi_major_axis" : "2.101369834646658",
        "inclination" : "10.87121351264099",
        "ascending_node_longitude" : "206.72928149",
        "orbital_period" : "1112.633590821872",
        "perihelion_distance" : ".7817633833809747",
        "perihelion_argument" : "147.7260513272305",
        "aphelion_distance" : "3.420976285912341",
        "perihelion_time" : "2458114.064477531185",
        "mean_anomaly" : "323.2554578178543",
        "mean_motion" : ".323556652405288",
        "equinox" : "J2000"
      }
    }, {
      "links" : {
        "self" : "https://api.nasa.gov/neo/rest/v1/neo/2215442?api_key=t0TVs3DtDT2H8Oy2Zy8m2eVrNsAVKAexjcZXUckd"
      },
      "neo_reference_id" : "2215442",
      "name" : "215442 (2002 MQ3)",
      "nasa_jpl_url" : "http://ssd.jpl.nasa.gov/sbdb.cgi?sstr=2215442",
      "absolute_magnitude_h" : 18.5,
      "estimated_diameter" : {
        "kilometers" : {
          "estimated_diameter_min" : 0.5303407233,
          "estimated_diameter_max" : 1.1858779086
        },
        "meters" : {
          "estimated_diameter_min" : 530.3407233187,
          "estimated_diameter_max" : 1185.8779085771
        },
        "miles" : {
          "estimated_diameter_min" : 0.3295383456,
          "estimated_diameter_max" : 0.7368701419
        },
        "feet" : {
          "estimated_diameter_min" : 1739.963058693,
          "estimated_diameter_max" : 3890.675677576
        }
      },
      "is_potentially_hazardous_asteroid" : false,
      "close_approach_data" : [ {
        "close_approach_date" : "1996-07-15",
        "epoch_date_close_approach" : 837414000000,
        "relative_velocity" : {
          "kilometers_per_second" : "18.8508512966",
          "kilometers_per_hour" : "67863.0646679004",
          "miles_per_hour" : "42167.4692654518"
        },
        "miss_distance" : {
          "astronomical" : "0.2207406539",
          "lunar" : "85.8681182861",
          "kilometers" : "33022334",
          "miles" : "20519126"
        },
        "orbiting_body" : "Earth"
      } ],
      "orbital_data" : {
        "orbit_id" : "84",
        "orbit_determination_date" : "2017-07-20 06:21:05",
        "orbit_uncertainty" : "0",
        "minimum_orbit_intersection" : ".134651",
        "jupiter_tisserand_invariant" : "6.345",
        "epoch_osculation" : "2458000.5",
        "eccentricity" : ".2742321551611447",
        "semi_major_axis" : ".9136335757624727",
        "inclination" : "36.28414633490178",
        "ascending_node_longitude" : "109.0770212864657",
        "orbital_period" : "318.974895592967",
        "perihelion_distance" : ".6630858712535468",
        "perihelion_argument" : "346.8725461415661",
        "aphelion_distance" : "1.164181280271399",
        "perihelion_time" : "2458055.409435183113",
        "mean_anomaly" : "298.0283622973726",
        "mean_motion" : "1.128615464645794",
        "equinox" : "J2000"
      }
    }, {
      "links" : {
        "self" : "https://api.nasa.gov/neo/rest/v1/neo/3312033?api_key=t0TVs3DtDT2H8Oy2Zy8m2eVrNsAVKAexjcZXUckd"
      },
      "neo_reference_id" : "3312033",
      "name" : "(2006 AK8)",
      "nasa_jpl_url" : "http://ssd.jpl.nasa.gov/sbdb.cgi?sstr=3312033",
      "absolute_magnitude_h" : 21.2,
      "estimated_diameter" : {
        "kilometers" : {
          "estimated_diameter_min" : 0.1529519353,
          "estimated_diameter_max" : 0.3420109247
        },
        "meters" : {
          "estimated_diameter_min" : 152.9519353442,
          "estimated_diameter_max" : 342.0109247198
        },
        "miles" : {
          "estimated_diameter_min" : 0.095039897,
          "estimated_diameter_max" : 0.2125156703
        },
        "feet" : {
          "estimated_diameter_min" : 501.8108275547,
          "estimated_diameter_max" : 1122.0831222578
        }
      },
      "is_potentially_hazardous_asteroid" : false,
      "close_approach_data" : [ {
        "close_approach_date" : "1996-07-15",
        "epoch_date_close_approach" : 837414000000,
        "relative_velocity" : {
          "kilometers_per_second" : "16.336175244",
          "kilometers_per_hour" : "58810.2308783032",
          "miles_per_hour" : "36542.3904032434"
        },
        "miss_distance" : {
          "astronomical" : "0.2516498583",
          "lunar" : "97.8917922974",
          "kilometers" : "37646284",
          "miles" : "23392316"
        },
        "orbiting_body" : "Earth"
      } ],
      "orbital_data" : {
        "orbit_id" : "20",
        "orbit_determination_date" : "2016-07-12 06:16:29",
        "orbit_uncertainty" : "0",
        "minimum_orbit_intersection" : ".109607",
        "jupiter_tisserand_invariant" : "5.316",
        "epoch_osculation" : "2457600.5",
        "eccentricity" : ".1224300066361258",
        "semi_major_axis" : "1.157034097103852",
        "inclination" : "28.94828137810144",
        "ascending_node_longitude" : "118.5841151778075",
        "orbital_period" : "454.587681732057",
        "perihelion_distance" : "1.015378404917204",
        "perihelion_argument" : "72.06262379211482",
        "aphelion_distance" : "1.298689789290501",
        "perihelion_time" : "2457457.326683237953",
        "mean_anomaly" : "113.3827336410694",
        "mean_motion" : ".7919264301846859",
        "equinox" : "J2000"
      }
    } ]
  }
}